STARLINK - 2019-029L               
1 44245U 19029L   19146.90894571  .00001087  00000-0  38519-4 0  9990
2 44245  52.9986 161.9938 0003279 230.5089 242.8861 15.38440790   535